NORAD_CAT_ID,OBJECT_NAME,OBJECT_TYPE,EPOCH,MEAN_MOTION,ECCENTRICITY,INCLINATION,RA_OF_ASC_NODE,ARG_OF_PERICENTER,MEAN_ANOMALY,BSTAR,MEAN_MOTION_DOT,MEAN_MOTION_DDOT,TLE_LINE0,TLE_LINE1,TLE_LINE2,SEMIMAJOR_AXIS,PERIOD,APOGEE,PERIGEE,DECAYED
50185.0,STARLINK-3279,PAYLOAD,2022-04-10 22:00:00,15.08860314,0.0002149,53.2177,183.1208,33.1121,193.8903,-0.0011063,-0.00017862,0.0,0 STARLINK-3279,1 50185U 21125AF  22100.91667824 -.00017862  00000-0 -11063-2 0  9997,2 50185  53.2177 183.1208 0002149  33.1121 193.8903 15.08860314 20423,6917.818,95.436,541.17,538.197,0.0
50185.0,STARLINK-3279,PAYLOAD,2022-04-11 14:00:01,15.08830574,0.000224,53.2179,180.1296,31.1005,219.0919,-0.00059042,-9.67e-05,0.0,0 STARLINK-3279,1 50185U 21125AF  22101.58334491 -.00009670  00000-0 -59042-3 0  9990,2 50185  53.2179 180.1296 0002240  31.1005 219.0919 15.08830574  3604,6917.909000000002,95.438,541.3240000000002,538.225,0.0
50185.0,STARLINK-3279,PAYLOAD,2022-04-11 22:00:00,15.08831669,0.0002135,53.2178,178.6319,31.1367,230.6367,-0.0044258,-0.00070027,0.0,0 STARLINK-3279,1 50185U 21125AF  22101.91667824 -.00070027  00000-0 -44258-2 0  9992,2 50185  53.2178 178.6319 0002135  31.1367 230.6367 15.08831669  3584,6917.906,95.438,541.248,538.294,0.0
50185.0,STARLINK-3279,PAYLOAD,2022-04-12 06:00:02,15.08789374,0.0002156,53.218,177.1353,37.5532,235.8282,0.0033525999999999,0.000534,0.0,0 STARLINK-3279,1 50185U 21125AF  22102.25002315  .00053400  00000-0  33526-2 0  9998,2 50185  53.2180 177.1353 0002156  37.5532 235.8282 15.08789374 20628,6918.035,95.441,541.3919999999998,538.409,0.0
50185.0,STARLINK-3279,PAYLOAD,2022-04-12 14:00:01,15.08804809,0.0002435,53.2182,175.6409,34.9802,249.8962,0.0024758,0.00039297,0.0,0 STARLINK-3279,1 50185U 21125AF  22102.58334491  .00039297  00000-0  24758-2 0  9992,2 50185  53.2182 175.6409 0002435  34.9802 249.8962 15.08804809  3606,6917.988,95.44,541.5369999999998,538.168,0.0
50185.0,STARLINK-3279,PAYLOAD,2022-04-12 22:00:00,15.08837387,0.00023,53.2184,174.1432,35.5179,260.9249,-0.00079582,-0.00012931,0.0,0 STARLINK-3279,1 50185U 21125AF  22102.91667824 -.00012931  00000-0 -79582-3 0  9992,2 50185  53.2184 174.1432 0002300  35.5179 260.9249 15.08837387 20724,6917.888000000001,95.438,541.344,538.1619999999998,0.0
50185.0,STARLINK-3279,PAYLOAD,2022-04-13 14:00:03,15.08831185,0.0002527,53.2186,171.15200000000004,35.6797,284.0834,0.0029361,0.0004673999999999,0.0,0 STARLINK-3279,1 50185U 21125AF  22103.58336806  .00046740  00000-0  29361-2 0  9991,2 50185  53.2186 171.1520 0002527  35.6797 284.0834 15.08831185 20827,6917.906999999997,95.438,541.52,538.024,0.0
50185.0,STARLINK-3279,PAYLOAD,2022-04-13 22:00:00,15.0886887,0.0002372,53.2187,169.6543,36.3565,294.8854,-0.00083567,-0.00013575,0.0,0 STARLINK-3279,1 50185U 21125AF  22103.91667824 -.00013575  00000-0 -83567-3 0  9996,2 50185  53.2187 169.6543 0002372  36.3565 294.8854 15.08868870  3614,6917.792,95.436,541.298,538.016,0.0
50185.0,STARLINK-3279,PAYLOAD,2022-04-14 08:00:01,15.0886013,0.0002363,53.2189,167.7844,36.4408,39.3232,-0.0018878,-0.00030225,0.0,0 STARLINK-3279,1 50185U 21125AF  22104.33334491 -.00030225  00000-0 -18878-2 0  9997,2 50185  53.2189 167.7844 0002363  36.4408  39.3232 15.08860130 20944,6917.819,95.436,541.319,538.049,0.0
50185.0,STARLINK-3279,PAYLOAD,2022-04-14 14:00:01,15.08837029,0.0002487,53.2189,166.6632,33.1455,321.3276,0.00010742,1.422e-05,0.0,0 STARLINK-3279,1 50185U 21125AF  22104.58334491  .00001422  00000-0  10742-3 0  9992,2 50185  53.2189 166.6632 0002487  33.1455 321.3276 15.08837029  3607,6917.889,95.438,541.475,538.034,0.0
50185.0,STARLINK-3279,PAYLOAD,2022-04-14 22:00:00,15.088309900000002,0.000229,53.2188,165.1653,33.589,332.4887,7.6963e-06,-1.66e-06,0.0,0 STARLINK-3279,1 50185U 21125AF  22104.91667824 -.00000166  00000-0  76963-5 0  9992,2 50185  53.2188 165.1653 0002290  33.5890 332.4887 15.08830990  3614,6917.908,95.438,541.357,538.189,0.0
50185.0,STARLINK-3279,PAYLOAD,2022-04-15 06:00:00,15.08857886,0.000228,53.219,163.6691,35.3968,342.265,-0.00028841,-4.878e-05,0.0,0 STARLINK-3279,1 50185U 21125AF  22105.25001157 -.00004878  00000-0 -28841-3 0  9996,2 50185  53.2190 163.6691 0002280  35.3968 342.2650 15.08857886 21088,6917.826,95.436,541.268,538.113,0.0
50185.0,STARLINK-3279,PAYLOAD,2022-04-15 14:00:01,15.08840275,0.0002482,53.2187,162.1743,32.3054,356.9846,0.0036358,0.00058055,0.0,0 STARLINK-3279,1 50185U 21125AF  22105.58334491  .00058055  00000-0  36358-2 0  9997,2 50185  53.2187 162.1743 0002482  32.3054 356.9846 15.08840275  3604,6917.88,95.438,541.462,538.028,0.0
50185.0,STARLINK-3279,PAYLOAD,2022-04-15 22:00:00,15.08865344,0.0002262,53.2185,160.6762,33.6796,7.2271,-0.0018132,-0.00029051,0.0,0 STARLINK-3279,1 50185U 21125AF  22105.91667824 -.00029051  00000-0 -18132-2 0  9999,2 50185  53.2185 160.6762 0002262  33.6796   7.2271 15.08865344  3588,6917.803000000001,95.436,541.2330000000002,538.1030000000002,0.0
50185.0,STARLINK-3279,PAYLOAD,2022-04-16 14:00:01,15.08774369,0.0002435,53.2181,157.6853,31.6065,32.4942,0.0023911,0.00037904,0.0,0 STARLINK-3279,1 50185U 21125AF  22106.58334491  .00037904  00000-0  23911-2 0  9999,2 50185  53.2181 157.6853 0002435  31.6065  32.4942 15.08774369 21288,6918.081,95.442,541.631,538.261,0.0
50185.0,STARLINK-3279,PAYLOAD,2022-04-16 22:00:01,15.08786041,0.0002219,53.2178,156.1873,33.9541,41.7493,0.0011970999999999,0.00018787,0.0,0 STARLINK-3279,1 50185U 21125AF  22106.91668981  .00018787  00000-0  11971-2 0  9991,2 50185  53.2178 156.1873 0002219  33.9541  41.7493 15.08786041  3592,6918.045,95.441,541.445,538.375,0.0
50185.0,STARLINK-3279,PAYLOAD,2022-04-17 14:00:01,15.08809899,0.00024,53.2172,153.1965,30.235,68.5632,0.0029237,0.00046513,0.0,0 STARLINK-3279,1 50185U 21125AF  22107.58334491  .00046513  00000-0  29237-2 0  9993,2 50185  53.2172 153.1965 0002400  30.2350  68.5632 15.08809899  3606,6917.972,95.439,541.498,538.177,0.0
50185.0,STARLINK-3279,PAYLOAD,2022-04-17 22:00:00,15.08823832,0.0002198,53.217,151.6983,33.2905,77.0962,0.001632,0.0002577,0.0,0 STARLINK-3279,1 50185U 21125AF  22107.91667824  .00025770  00000-0  16320-2 0  9990,2 50185  53.2170 151.6983 0002198  33.2905  77.0962 15.08823832  3604,6917.93,95.439,541.315,538.274,0.0
50185.0,STARLINK-3279,PAYLOAD,2022-04-18 08:00:01,15.08853443,0.0002354,53.2169,149.8289,33.8763,180.999,-0.001124,-0.0001814,0.0,0 STARLINK-3279,1 50185U 21125AF  22108.33334491 -.00018140  00000-0 -11240-2 0  9999,2 50185  53.2169 149.8289 0002354  33.8763 180.9990 15.08853443 21541,6917.839,95.437,541.3330000000002,538.076,0.0
50185.0,STARLINK-3279,PAYLOAD,2022-04-18 14:00:01,15.088285199999998,0.0002453,53.2165,148.7072,31.2207,102.3592,0.0024621,0.00039103,0.0,0 STARLINK-3279,1 50185U 21125AF  22108.58334491  .00039103  00000-0  24621-2 0  9993,2 50185  53.2165 148.7072 0002453  31.2207 102.3592 15.08828520  3601,6917.915,95.438,541.477,538.0840000000002,0.0
50185.0,STARLINK-3279,PAYLOAD,2022-04-18 22:00:00,15.08834043,0.0002223,53.2166,147.2089,33.0333,112.1576,-0.00013166,-2.383e-05,0.0,0 STARLINK-3279,1 50185U 21125AF  22108.91667824 -.00002383  00000-0 -13166-3 0  9994,2 50185  53.2166 147.2089 0002223  33.0333 112.1576 15.08834043  3562,6917.899,95.438,541.3009999999998,538.226,0.0
50185.0,STARLINK-3279,PAYLOAD,2022-04-19 06:00:00,15.08848671,0.0002315,53.2167,145.7133,33.8859,122.8887,-0.0015313,-0.00024583,0.0,0 STARLINK-3279,1 50185U 21125AF  22109.25001157 -.00024583  00000-0 -15313-2 0  9994,2 50185  53.2167 145.7133 0002315  33.8859 122.8887 15.08848671 21687,6917.854,95.437,541.32,538.117,0.0
50185.0,STARLINK-3279,PAYLOAD,2022-04-19 14:00:01,15.08818985,0.0002497,53.2164,144.2178,30.5994,137.768,0.0025144,0.00039934,0.0,0 STARLINK-3279,1 50185U 21125AF  22109.58334491  .00039934  00000-0  25144-2 0  9997,2 50185  53.2164 144.2178 0002497  30.5994 137.7680 15.08818985  3560,6917.945,95.439,541.5369999999998,538.082,0.0
50185.0,STARLINK-3279,PAYLOAD,2022-04-19 22:00:00,15.08822151,0.0002314,53.2166,142.7197,33.4755,146.4866,0.0023159,0.00036745,0.0,0 STARLINK-3279,1 50185U 21125AF  22109.91667824  .00036745  00000-0  23159-2 0  9994,2 50185  53.2166 142.7197 0002314  33.4755 146.4866 15.08822151 21788,6917.935,95.439,541.401,538.1990000000002,0.0
50185.0,STARLINK-3279,PAYLOAD,2022-04-20 14:00:01,15.0884882,0.0002582,53.2168,139.7286,31.5046,171.6521,-0.00025315,-4.316e-05,0.0,0 STARLINK-3279,1 50185U 21125AF  22110.58334491 -.00004316  00000-0 -25315-3 0  9998,2 50185  53.2168 139.7286 0002582  31.5046 171.6521 15.08848820 21884,6917.853,95.437,541.505,537.932,0.0
50185.0,STARLINK-3279,PAYLOAD,2022-04-20 22:00:00,15.08815384,0.0002364,53.2172,138.2304,32.8148,181.9616,0.0022126,0.00035078,0.0,0 STARLINK-3279,1 50185U 21125AF  22110.91667824  .00035078  00000-0  22126-2 0  9997,2 50185  53.2172 138.2304 0002364  32.8148 181.9616 15.08815384  3584,6917.956,95.439,541.456,538.185,0.0
50185.0,STARLINK-3279,PAYLOAD,2022-04-21 14:00:01,15.08832537,0.000264,53.2176,135.2395,31.5817,206.3624,0.0011859,0.00018633,0.0,0 STARLINK-3279,1 50185U 21125AF  22111.58334491  .00018633  00000-0  11859-2 0  9991,2 50185  53.2176 135.2395 0002640  31.5817 206.3624 15.08832537  3604,6917.903,95.438,541.595,537.942,0.0
50185.0,STARLINK-3279,PAYLOAD,2022-04-21 22:00:00,15.08834796,0.0002429,53.2179,133.7413,34.5592,214.9953,0.0016358,0.00025838,0.0,0 STARLINK-3279,1 50185U 21125AF  22111.91667824  .00025838  00000-0  16358-2 0  9991,2 50185  53.2179 133.7413 0002429  34.5592 214.9953 15.08834796  3585,6917.896,95.438,541.442,538.081,0.0
50185.0,STARLINK-3279,PAYLOAD,2022-04-22 14:00:01,15.08830952,0.0002626,53.2181,130.7505,31.1431,241.597,0.00051141,7.858e-05,0.0,0 STARLINK-3279,1 50185U 21125AF  22112.58334491  .00007858  00000-0  51141-3 0  9998,2 50185  53.2181 130.7505 0002626  31.1431 241.5970 15.08830952  3609,6917.908,95.438,541.59,537.956,0.0
